ONEWEB-0693             
1 61601U 24188H   25280.10007457  .00000010  00000+0 -61323-5 0  9999
2 61601  87.9075  56.2558 0000824 100.4857 259.6367 13.17650989 52556
ONEWEB-0695             
1 61602U 24188J   25280.11609010  .00000351  00000+0  95482-3 0  9992
2 61602  87.8800  71.4902 0002200  98.5617 261.5760 13.11414046 51290
ONEWEB-0697             
1 61603U 24188K   25280.14829665 -.00000428  00000+0 -12436-2 0  9990
2 61603  87.8798  71.4744 0002199 113.2160 246.9200 13.11417266 51288
ONEWEB-0698             
1 61604U 24188L   25280.12624598 -.00001739  00000+0 -49438-2 0  9995
2 61604  87.8791  71.4933 0001704 131.9835 228.1439 13.11420166 51301
ONEWEB-0699             
1 61605U 24188M   25280.16676909  .00000010  00000+0 -66859-5 0  9992
2 61605  87.8753  86.7021 0001989 110.6509 249.4832 13.10370582 50176
ONEWEB-0700             
1 61606U 24188N   25280.16842069 -.00000047  00000+0 -17166-3 0  9991
2 61606  87.8748  86.5843 0002389  97.4631 262.6768 13.10371714 50166
ONEWEB-0701             
1 61607U 24188P   25280.18500948 -.00000706  00000+0 -20590-2 0  9997
2 61607  87.8748  86.7013 0002139 112.3622 247.7733 13.10372561 50176
ONEWEB-0702             
1 61608U 24188Q   25280.17205334  .00000415  00000+0  11347-2 0  9993
2 61608  87.8749  71.3992 0002486 109.2156 250.9241 13.11418156 51326
ONEWEB-0704             
1 61609U 24188R   25280.17339786 -.00000263  00000+0 -79037-3 0  9997
2 61609  87.8765  86.6595 0002482 105.6063 254.5338 13.10369564 50150
ONEWEB-0705             
1 61610U 24188S   25280.17839406 -.00001942  00000+0 -56030-2 0  9995
2 61610  87.8741  86.6895 0003030  85.4691 274.6783 13.10361347 42329
ONEWEB-0706             
1 61611U 24188T   25280.16344719  .00000229  00000+0  62031-3 0  9997
2 61611  87.8743  86.7176 0002311  97.0095 263.1295 13.10371018 50240
ONEWEB-0707             
1 61612U 24188U   25280.17008397 -.00000161  00000+0 -49674-3 0  9993
2 61612  87.8759  86.6848 0002212  99.1931 260.9447 13.10371570 50185
ONEWEB-0708             
1 61613U 24188V   25280.18832894 -.00000775  00000+0 -22573-2 0  9991
2 61613  87.8755  86.7229 0002415  88.2065 271.9339 13.10373139 50161
