[{"OBJECT_NAME":"ONEWEB-0693","OBJECT_ID":"2024-188H","EPOCH":"2025-10-07T02:24:06.442848","MEAN_MOTION":13.17650989,"ECCENTRICITY":8.245e-5,"INCLINATION":87.9075,"RA_OF_ASC_NODE":56.2558,"ARG_OF_PERICENTER":100.4857,"MEAN_ANOMALY":259.6367,"EPHEMERIS_TYPE":0,"CLASSIFICATION_TYPE":"U","NORAD_CAT_ID":61601,"ELEMENT_SET_NO":999,"REV_AT_EPOCH":5255,"BSTAR":-6.132291e-6,"MEAN_MOTION_DOT":1.0e-7,"MEAN_MOTION_DDOT":0},{"OBJECT_NAME":"ONEWEB-0695","OBJECT_ID":"2024-188J","EPOCH":"2025-10-07T02:47:10.184640","MEAN_MOTION":13.11414046,"ECCENTRICITY":0.00022008,"INCLINATION":87.88,"RA_OF_ASC_NODE":71.4902,"ARG_OF_PERICENTER":98.5617,"MEAN_ANOMALY":261.576,"EPHEMERIS_TYPE":0,"CLASSIFICATION_TYPE":"U","NORAD_CAT_ID":61602,"ELEMENT_SET_NO":999,"REV_AT_EPOCH":5129,"BSTAR":0.00095481746,"MEAN_MOTION_DOT":3.51e-6,"MEAN_MOTION_DDOT":0},{"OBJECT_NAME":"ONEWEB-0697","OBJECT_ID":"2024-188K","EPOCH":"2025-10-07T03:33:32.830560","MEAN_MOTION":13.11417266,"ECCENTRICITY":0.00021999,"INCLINATION":87.8798,"RA_OF_ASC_NODE":71.4744,"ARG_OF_PERICENTER":113.216,"MEAN_ANOMALY":246.92,"EPHEMERIS_TYPE":0,"CLASSIFICATION_TYPE":"U","NORAD_CAT_ID":61603,"ELEMENT_SET_NO":999,"REV_AT_EPOCH":5128,"BSTAR":-0.0012436228,"MEAN_MOTION_DOT":-4.28e-6,"MEAN_MOTION_DDOT":0},{"OBJECT_NAME":"ONEWEB-0698","OBJECT_ID":"2024-188L","EPOCH":"2025-10-07T03:01:47.652672","MEAN_MOTION":13.11420166,"ECCENTRICITY":0.00017041,"INCLINATION":87.8791,"RA_OF_ASC_NODE":71.4933,"ARG_OF_PERICENTER":131.9835,"MEAN_ANOMALY":228.1439,"EPHEMERIS_TYPE":0,"CLASSIFICATION_TYPE":"U","NORAD_CAT_ID":61604,"ELEMENT_SET_NO":999,"REV_AT_EPOCH":5130,"BSTAR":-0.0049437576,"MEAN_MOTION_DOT":-1.739e-5,"MEAN_MOTION_DDOT":0},{"OBJECT_NAME":"ONEWEB-0699","OBJECT_ID":"2024-188M","EPOCH":"2025-10-07T04:00:08.849376","MEAN_MOTION":13.10370582,"ECCENTRICITY":0.00019899,"INCLINATION":87.8753,"RA_OF_ASC_NODE":86.7021,"ARG_OF_PERICENTER":110.6509,"MEAN_ANOMALY":249.4832,"EPHEMERIS_TYPE":0,"CLASSIFICATION_TYPE":"U","NORAD_CAT_ID":61605,"ELEMENT_SET_NO":999,"REV_AT_EPOCH":5017,"BSTAR":-6.685936e-6,"MEAN_MOTION_DOT":1.0e-7,"MEAN_MOTION_DDOT":0},{"OBJECT_NAME":"ONEWEB-0700","OBJECT_ID":"2024-188N","EPOCH":"2025-10-07T04:02:31.547616","MEAN_MOTION":13.10371714,"ECCENTRICITY":0.00023891,"INCLINATION":87.8748,"RA_OF_ASC_NODE":86.5843,"ARG_OF_PERICENTER":97.4631,"MEAN_ANOMALY":262.6768,"EPHEMERIS_TYPE":0,"CLASSIFICATION_TYPE":"U","NORAD_CAT_ID":61606,"ELEMENT_SET_NO":999,"REV_AT_EPOCH":5016,"BSTAR":-0.00017166191,"MEAN_MOTION_DOT":-4.7e-7,"MEAN_MOTION_DDOT":0},{"OBJECT_NAME":"ONEWEB-0701","OBJECT_ID":"2024-188P","EPOCH":"2025-10-07T04:26:24.819072","MEAN_MOTION":13.10372561,"ECCENTRICITY":0.00021399,"INCLINATION":87.8748,"RA_OF_ASC_NODE":86.7013,"ARG_OF_PERICENTER":112.3622,"MEAN_ANOMALY":247.7733,"EPHEMERIS_TYPE":0,"CLASSIFICATION_TYPE":"U","NORAD_CAT_ID":61607,"ELEMENT_SET_NO":999,"REV_AT_EPOCH":5017,"BSTAR":-0.0020590214,"MEAN_MOTION_DOT":-7.06e-6,"MEAN_MOTION_DDOT":0},{"OBJECT_NAME":"ONEWEB-0702","OBJECT_ID":"2024-188Q","EPOCH":"2025-10-07T04:07:45.408576","MEAN_MOTION":13.11418156,"ECCENTRICITY":0.00024867,"INCLINATION":87.8749,"RA_OF_ASC_NODE":71.3992,"ARG_OF_PERICENTER":109.2156,"MEAN_ANOMALY":250.9241,"EPHEMERIS_TYPE":0,"CLASSIFICATION_TYPE":"U","NORAD_CAT_ID":61608,"ELEMENT_SET_NO":999,"REV_AT_EPOCH":5132,"BSTAR":0.0011347091,"MEAN_MOTION_DOT":4.15e-6,"MEAN_MOTION_DDOT":0},{"OBJECT_NAME":"ONEWEB-0704","OBJECT_ID":"2024-188R","EPOCH":"2025-10-07T04:09:41.575104","MEAN_MOTION":13.10369564,"ECCENTRICITY":0.0002482,"INCLINATION":87.8765,"RA_OF_ASC_NODE":86.6595,"ARG_OF_PERICENTER":105.6063,"MEAN_ANOMALY":254.5338,"EPHEMERIS_TYPE":0,"CLASSIFICATION_TYPE":"U","NORAD_CAT_ID":61609,"ELEMENT_SET_NO":999,"REV_AT_EPOCH":5015,"BSTAR":-0.00079037042,"MEAN_MOTION_DOT":-2.63e-6,"MEAN_MOTION_DDOT":0},{"OBJECT_NAME":"ONEWEB-0705","OBJECT_ID":"2024-188S","EPOCH":"2025-10-07T04:16:53.246784","MEAN_MOTION":13.10361347,"ECCENTRICITY":0.00030303,"INCLINATION":87.8741,"RA_OF_ASC_NODE":86.6895,"ARG_OF_PERICENTER":85.4691,"MEAN_ANOMALY":274.6783,"EPHEMERIS_TYPE":0,"CLASSIFICATION_TYPE":"U","NORAD_CAT_ID":61610,"ELEMENT_SET_NO":999,"REV_AT_EPOCH":4232,"BSTAR":-0.0056029577,"MEAN_MOTION_DOT":-1.942e-5,"MEAN_MOTION_DDOT":0},{"OBJECT_NAME":"ONEWEB-0706","OBJECT_ID":"2024-188T","EPOCH":"2025-10-07T03:55:21.837216","MEAN_MOTION":13.10371018,"ECCENTRICITY":0.00023111,"INCLINATION":87.8743,"RA_OF_ASC_NODE":86.7176,"ARG_OF_PERICENTER":97.0095,"MEAN_ANOMALY":263.1295,"EPHEMERIS_TYPE":0,"CLASSIFICATION_TYPE":"U","NORAD_CAT_ID":61611,"ELEMENT_SET_NO":999,"REV_AT_EPOCH":5024,"BSTAR":0.0006203068,"MEAN_MOTION_DOT":2.29e-6,"MEAN_MOTION_DDOT":0},{"OBJECT_NAME":"ONEWEB-0707","OBJECT_ID":"2024-188U","EPOCH":"2025-10-07T04:04:55.255008","MEAN_MOTION":13.1037157,"ECCENTRICITY":0.00022122,"INCLINATION":87.8759,"RA_OF_ASC_NODE":86.6848,"ARG_OF_PERICENTER":99.1931,"MEAN_ANOMALY":260.9447,"EPHEMERIS_TYPE":0,"CLASSIFICATION_TYPE":"U","NORAD_CAT_ID":61612,"ELEMENT_SET_NO":999,"REV_AT_EPOCH":5018,"BSTAR":-0.00049673974,"MEAN_MOTION_DOT":-1.61e-6,"MEAN_MOTION_DDOT":0},{"OBJECT_NAME":"ONEWEB-0708","OBJECT_ID":"2024-188V","EPOCH":"2025-10-07T04:31:11.620416","MEAN_MOTION":13.10373139,"ECCENTRICITY":0.00024158,"INCLINATION":87.8755,"RA_OF_ASC_NODE":86.7229,"ARG_OF_PERICENTER":88.2065,"MEAN_ANOMALY":271.9339,"EPHEMERIS_TYPE":0,"CLASSIFICATION_TYPE":"U","NORAD_CAT_ID":61613,"ELEMENT_SET_NO":999,"REV_AT_EPOCH":5016,"BSTAR":-0.0022573038,"MEAN_MOTION_DOT":-7.75e-6,"MEAN_MOTION_DDOT":0}]
